CCSDS_OMM_VERS,COMMENT,CREATION_DATE,ORIGINATOR,OBJECT_NAME,OBJECT_ID,CENTER_NAME,REF_FRAME,TIME_SYSTEM,MEAN_ELEMENT_THEORY,EPOCH,MEAN_MOTION,ECCENTRICITY,INCLINATION,RA_OF_ASC_NODE,ARG_OF_PERICENTER,MEAN_ANOMALY,EPHEMERIS_TYPE,CLASSIFICATION_TYPE,NORAD_CAT_ID,ELEMENT_SET_NO,REV_AT_EPOCH,BSTAR,MEAN_MOTION_DOT,MEAN_MOTION_DDOT,SEMIMAJOR_AXIS,PERIOD,APOAPSIS,PERIAPSIS,OBJECT_TYPE,RCS_SIZE,COUNTRY_CODE,LAUNCH_DATE,SITE,DECAY_DATE,DECAYED,FILE,GP_ID,TLE_LINE0,TLE_LINE1,TLE_LINE2,height_km,latitude,longitude,velocity_kms,id
2.0,GENERATED VIA SPACE-TRACK.ORG API,2020-11-19T21:56:10,18 SPCS,STARLINK-1268,2020-019AB,EARTH,TEME,UTC,SGP4,2020-11-19T15:36:56.186784,16.38817508,0.0006213,52.9836,115.7917,324.4231,124.8648,0,U,45385,999,3933,0.001756,0.21036594,1.2419e-05,6547.086,87.868,173.019,164.884,PAYLOAD,LARGE,US,2020-03-18,AFETR,2020-11-19,1,2880945,165882860,0 STARLINK-1268,1 45385U 20019AB  20324.65065031  .21036594  12419-4  17560-2 0  9996,2 45385  52.9836 115.7917 0006213 324.4231 124.8648 16.38817508 39330,,,,,5eed7715096e590006985714
2.0,GENERATED VIA SPACE-TRACK.ORG API,2022-11-30T15:06:14,18 SPCS,STARLINK-1415,2020-035AL,EARTH,TEME,UTC,SGP4,2022-11-30T10:23:45.034368,15.06391241,0.0001621,53.0583,22.3352,58.8652,301.2495,0,U,45691,999,13871,-3.0227e-06,-3.27e-06,0.0,6925.375,95.593,548.363,546.118,PAYLOAD,LARGE,US,2020-06-04,AFETR,,0,3675251,219143693,0 STARLINK-1415,1 45691U 20035AL  22334.43316012 -.00000327  00000-0 -30227-5 0  9992,2 45691  53.0583  22.3352 0001621  58.8652 301.2495 15.06391241138718,556.6549907096305,-30.336542430680016,36.80059421630022,7.583067869869612,5eed7715096e590006985715
2.0,GENERATED VIA SPACE-TRACK.ORG API,2022-11-30T17:18:05,18 SPCS,STARLINK-1202,2020-012F,EARTH,TEME,UTC,SGP4,2022-11-30T12:48:22.900032,15.06391288,0.00014,53.0553,11.8885,60.6359,299.477,0,U,45183,999,15470,7.5689e-05,8.46e-06,0.0,6925.375,95.593,548.21,546.271,PAYLOAD,LARGE,US,2020-02-17,AFETR,,0,3675646,219172343,0 STARLINK-1202,1 45183U 20012F   22334.53359838  .00000846  00000-0  75689-4 0  9991,2 45183  53.0553  11.8885 0001400  60.6359 299.4770 15.06391288154707,547.4271951377832,1.5770050908548163,38.71953456768888,7.5898868690615355,5eed7715096e590006985716
2.0,GENERATED VIA SPACE-TRACK.ORG API,2022-11-30T17:18:05,18 SPCS,STARLINK-1460,2020-035V,EARTH,TEME,UTC,SGP4,2022-11-30T12:40:25.648896,15.06392652,0.0001442,53.0565,31.9197,71.1699,288.9446,0,U,45676,999,13855,6.2419e-05,6.48e-06,0.0,6925.371,95.593,548.235,546.237,PAYLOAD,LARGE,US,2020-06-04,AFETR,,0,3675646,219172393,0 STARLINK-1460,1 45676U 20035V   22334.52807464  .00000648  00000-0  62419-4 0  9992,2 45676  53.0565  31.9197 0001442  71.1699 288.9446 15.06392652138550,547.4608761911386,25.16660213032445,78.1178486990124,7.592179053879257,5eed7715096e590006985717
2.0,GENERATED VIA SPACE-TRACK.ORG API,2022-10-15T12:36:11,18 SPCS,STARLINK-1218,2020-012AH,EARTH,TEME,UTC,SGP4,2022-10-15T12:14:02.712768,16.36407591,0.0001122,53.0289,321.4124,347.7115,163.3016,0,U,45209,999,15040,0.0026529,0.2389005,1.228e-05,6553.513,87.998,176.114,174.643,PAYLOAD,LARGE,US,2020-02-17,AFETR,2022-10-15,1,3613686,215162601,0 STARLINK-1218,1 45209U 20012AH  22288.50975362  .23890050  12280-4  26529-2 0  9994,2 45209  53.0289 321.4124 0001122 347.7115 163.3016 16.36407591150402,,,,,5eed7715096e590006985718
2.0,GENERATED VIA SPACE-TRACK.ORG API,2022-11-30T17:18:05,18 SPCS,STARLINK-1138,2020-012A,EARTH,TEME,UTC,SGP4,2022-11-30T12:11:14.649216,15.0638675,0.0001673,53.0551,12.0007,76.2432,283.8743,0,U,45178,999,15463,6.678e-05,7.13e-06,0.0,6925.389,95.593,548.413,546.096,PAYLOAD,LARGE,US,2020-02-17,AFETR,,0,3675646,219172095,0 STARLINK-1138,1 45178U 20012A   22334.50780844  .00000713  00000-0  66780-4 0  9992,2 45178  53.0551  12.0007 0001673  76.2432 283.8743 15.06386750154632,548.3840395159714,29.545017153495316,-167.54699928524852,7.591984306727849,5eed7715096e590006985719
2.0,GENERATED VIA SPACE-TRACK.ORG API,2022-11-30T17:18:05,18 SPCS,STARLINK-1194,2020-006BK,EARTH,TEME,UTC,SGP4,2022-11-30T01:38:15.340704,15.06392836,0.0001721,53.0553,213.9582,56.7133,303.4021,0,U,45101,999,15681,0.00029039,4.046e-05,0.0,6925.371,95.593,548.427,546.044,PAYLOAD,LARGE,US,2020-01-29,AFETR,,0,3675646,219172088,0 STARLINK-1194,1 45101U 20006BK  22334.06823311  .00004046  00000-0  29039-3 0  9997,2 45101  53.0553 213.9582 0001721  56.7133 303.4021 15.06392836156817,546.7967670994685,5.663978222939294,-118.2263012957852,7.590682608583036,5eed7715096e59000698571a
2.0,GENERATED VIA SPACE-TRACK.ORG API,2022-11-30T17:18:05,18 SPCS,STARLINK-1295,2020-019P,EARTH,TEME,UTC,SGP4,2022-11-30T12:37:46.227936,15.06401312,0.0001381,53.0537,131.9136,73.612,286.5021,0,U,45373,999,14959,5.1026e-05,4.79e-06,0.0,6925.345,95.592,548.166,546.253,PAYLOAD,LARGE,US,2020-03-18,AFETR,,0,3675646,219171615,0 STARLINK-1295,1 45373U 20019P   22334.52622949  .00000479  00000-0  51026-4 0  9995,2 45373  53.0537 131.9136 0001381  73.6120 286.5021 15.06401312149598,548.51061948816,32.474437354535794,-174.04177311867065,7.592406052171683,5eed7715096e59000698571b
2.0,GENERATED VIA SPACE-TRACK.ORG API,2022-11-30T17:18:05,18 SPCS,STARLINK-1184,2020-006BG,EARTH,TEME,UTC,SGP4,2022-11-30T09:47:54.782880,15.06405303,0.0001654,53.0558,212.4443,65.3218,294.7943,0,U,45098,999,15686,0.00011859,1.485e-05,0.0,6925.332,95.592,548.343,546.052,PAYLOAD,LARGE,US,2020-01-29,AFETR,,0,3675646,219172335,0 STARLINK-1184,1 45098U 20006BG  22334.40827295  .00001485  00000-0  11859-3 0  9990,2 45098  53.0558 212.4443 0001654  65.3218 294.7943 15.06405303156866,556.4418360162863,-29.611890216637676,-147.62287450482017,7.583134068211205,5eed7715096e59000698571c
2.0,GENERATED VIA SPACE-TRACK.ORG API,2022-11-30T17:18:05,18 SPCS,STARLINK-1196,2020-006BM,EARTH,TEME,UTC,SGP4,2022-11-30T09:20:01.078368,15.06397055,0.0001575,53.0534,212.5196,79.8501,280.2666,0,U,45103,999,15686,0.00012029,1.51e-05,0.0,6925.358,95.592,548.313,546.132,PAYLOAD,LARGE,US,2020-01-29,AFETR,,0,3675646,219171588,0 STARLINK-1196,1 45103U 20006BM  22334.38890137  .00001510  00000-0  12029-3 0  9998,2 45103  53.0534 212.5196 0001575  79.8501 280.2666 15.06397055156866,551.4410299072606,47.603920749208605,-67.46938047992928,7.592534356859083,5eed7715096e59000698571d
2.0,GENERATED VIA SPACE-TRACK.ORG API,2022-11-30T17:18:05,18 SPCS,STARLINK-1413,2020-035AJ,EARTH,TEME,UTC,SGP4,2022-11-30T12:20:31.742592,15.06386225,0.0001288,53.0559,21.9742,90.3886,269.7251,0,U,45689,999,13864,1.1395e-05,-1.12e-06,0.0,6925.391,95.593,548.148,546.364,PAYLOAD,LARGE,US,2020-06-04,AFETR,,0,3675646,219172895,0 STARLINK-1413,1 45689U 20035AJ  22334.51425628 -.00000112  00000-0  11395-4 0  9997,2 45689  53.0559  21.9742 0001288  90.3886 269.7251 15.06386225138641,552.2241543718201,49.97785649287334,164.5860905580383,7.592229083684259,5eed7715096e59000698571e
2.0,GENERATED VIA SPACE-TRACK.ORG API,2022-11-29T20:50:49,18 SPCS,STARLINK-1346,2020-025AF,EARTH,TEME,UTC,SGP4,2022-11-29T11:19:42.108096,15.0640037,0.000149,53.0565,46.6501,75.4668,284.6486,0,U,45560,999,14521,0.00023367,3.201e-05,0.0,6925.347,95.592,548.244,546.181,PAYLOAD,LARGE,US,2020-04-22,AFETR,,0,3673336,219069199,0 STARLINK-1346,1 45560U 20025AF  22333.47201514  .00003201  00000-0  23367-3 0  9996,2 45560  53.0565  46.6501 0001490  75.4668 284.6486 15.06400370145215,548.0735283904232,1.3227676428806072,-52.56155796191246,7.589148609559405,5eed7715096e59000698571f
2.0,GENERATED VIA SPACE-TRACK.ORG API,2022-11-30T03:22:20,18 SPCS,STARLINK-1303,2020-019AN,EARTH,TEME,UTC,SGP4,2022-11-29T16:03:42.370560,15.06396658,0.0001367,53.0551,115.7594,67.1988,292.9145,0,U,45396,999,14945,7.7022e-05,8.66e-06,0.0,6925.359,95.592,548.17,546.277,PAYLOAD,LARGE,US,2020-03-18,AFETR,,0,3673849,219108050,0 STARLINK-1303,1 45396U 20019AN  22333.66924040  .00000866  00000-0  77022-4 0  9995,2 45396  53.0551 115.7594 0001367  67.1988 292.9145 15.06396658149450,549.9731870991536,40.347367496606715,-137.34257925842817,7.5925043200545685,5eed7715096e590006985720
2.0,GENERATED VIA SPACE-TRACK.ORG API,2022-11-30T17:18:05,18 SPCS,STARLINK-1306,2020-019C,EARTH,TEME,UTC,SGP4,2022-11-30T12:48:23.236128,15.06398557,0.0001602,53.055,131.8953,74.1233,285.9932,0,U,45362,999,14958,-2.1279e-06,-3.13e-06,0.0,6925.353,95.592,548.327,546.109,PAYLOAD,LARGE,US,2020-03-18,AFETR,,0,3675646,219172114,0 STARLINK-1306,1 45362U 20019C   22334.53360227 -.00000313  00000-0 -21279-5 0  9999,2 45362  53.0550 131.8953 0001602  74.1233 285.9932 15.06398557149583,547.5738376752588,1.5667199681572692,158.71842068191634,7.589714684649475,5eed7715096e590006985721
2.0,GENERATED VIA SPACE-TRACK.ORG API,2022-11-30T14:36:14,18 SPCS,STARLINK-1336,2020-025AC,EARTH,TEME,UTC,SGP4,2022-11-30T08:17:40.032672,15.06397855,0.0001381,53.0552,52.7282,92.7755,267.3392,0,U,45557,999,14460,3.7921e-05,2.83e-06,0.0,6925.355,95.592,548.177,546.264,PAYLOAD,LARGE,US,2020-04-22,AFETR,,0,3674952,219136423,0 STARLINK-1336,1 45557U 20025AC  22334.34560223  .00000283  00000-0  37921-4 0  9993,2 45557  53.0552  52.7282 0001381  92.7755 267.3392 15.06397855144608,552.380744877818,51.05724278778869,160.49833434380145,7.592277520891475,5eed7715096e590006985722
2.0,GENERATED VIA SPACE-TRACK.ORG API,2022-11-30T17:18:05,18 SPCS,STARLINK-1281,2020-019L,EARTH,TEME,UTC,SGP4,2022-11-30T12:00:36.793440,15.0639446,0.0001557,53.0546,132.0444,70.0283,290.0874,0,U,45370,999,14959,9.2116e-05,1.091e-05,0.0,6925.366,95.592,548.309,546.152,PAYLOAD,LARGE,US,2020-03-18,AFETR,,0,3675646,219171865,0 STARLINK-1281,1 45370U 20019L   22334.50042585  .00001091  00000-0  92116-4 0  9998,2 45370  53.0546 132.0444 0001557  70.0283 290.0874 15.06394460149596,548.7419879442814,-1.76318827072813,-21.134370809716078,7.588443025060175,5eed7715096e590006985723
